start=new Date('2023-03-24T00:00:00.000Z').valueOf();
sats=[{"BSTAR":"-0.00004757600000","OBJECT_NAME":"STARLINK-1243","DECAY_DATE":null,"TIME_SYSTEM":"UTC","PERIOD":"95.592","MEAN_MOTION":"15.06403385","CLASSIFICATION_TYPE":"U","REV_AT_EPOCH":"17084","SEMIMAJOR_AXIS":"6925.338","TLE_LINE1":"1 45234U 20012BJ  23082.67348850 -.00000990  00000-0 -47576-4 0  9992","EPHEMERIS_TYPE":"0","MEAN_MOTION_DOT":"-0.00000990","RCS_SIZE":"LARGE","CENTER_NAME":"EARTH","PERIAPSIS":"546.301","GP_ID":"228713753","ELEMENT_SET_NO":"999","ARG_OF_PERICENTER":"81.0051","LAUNCH_DATE":"2020-02-17","NORAD_CAT_ID":"45234","RA_OF_ASC_NODE":"223.9760","MEAN_MOTION_DDOT":"0.0000000000000","INCLINATION":"53.0542","SITE":"AFETR","OBJECT_ID":"2020-012BJ","FILE":"3868662","APOAPSIS":"548.106","EPOCH":"2023-03-23T16:09:49.406400","REF_FRAME":"TEME","MEAN_ANOMALY":"279.1085","MEAN_ELEMENT_THEORY":"SGP4","COUNTRY_CODE":"US","OBJECT_TYPE":"PAYLOAD","TLE_LINE2":"2 45234  53.0542 223.9760 0001303  81.0051 279.1085 15.06403385170847","ECCENTRICITY":"0.00013030"},{"MEAN_MOTION":"15.06373246","CLASSIFICATION_TYPE":"U","DECAY_DATE":null,"BSTAR":"0.00185000000000","OBJECT_NAME":"STARLINK-1246","TIME_SYSTEM":"UTC","PERIOD":"95.594","EPHEMERIS_TYPE":"0","MEAN_MOTION_DOT":"0.00027362","RCS_SIZE":"LARGE","CENTER_NAME":"EARTH","REV_AT_EPOCH":"17084","SEMIMAJOR_AXIS":"6925.431","TLE_LINE1":"1 45235U 20012BK  23082.65878862  .00027362  00000-0  18500-2 0  9995","RA_OF_ASC_NODE":"224.0442","NORAD_CAT_ID":"45235","INCLINATION":"53.0538","MEAN_MOTION_DDOT":"0.0000000000000","FILE":"3868662","OBJECT_ID":"2020-012BK","APOAPSIS":"548.347","SITE":"AFETR","GP_ID":"228714216","PERIAPSIS":"546.244","ARG_OF_PERICENTER":"94.5376","ELEMENT_SET_NO":"999","LAUNCH_DATE":"2020-02-17","TLE_LINE2":"2 45235  53.0538 224.0442 0001518  94.5376 265.5786 15.06373246170848","OBJECT_TYPE":"PAYLOAD","ECCENTRICITY":"0.00015180","REF_FRAME":"TEME","EPOCH":"2023-03-23T15:48:39.336768","MEAN_ELEMENT_THEORY":"SGP4","MEAN_ANOMALY":"265.5786","COUNTRY_CODE":"US"},{"RCS_SIZE":"LARGE","MEAN_MOTION_DOT":"0.00022805","EPHEMERIS_TYPE":"0","CENTER_NAME":"EARTH","REV_AT_EPOCH":"17228","TLE_LINE1":"1 45236U 20012BL  23082.50767281  .00022805  00000-0  15453-2 0  9993","SEMIMAJOR_AXIS":"6925.378","MEAN_MOTION":"15.06390491","CLASSIFICATION_TYPE":"U","BSTAR":"0.00154530000000","OBJECT_NAME":"STARLINK-1247","DECAY_DATE":null,"PERIOD":"95.593","TIME_SYSTEM":"UTC","OBJECT_TYPE":"PAYLOAD","TLE_LINE2":"2 45236  53.0533 184.7195 0001433 122.4894 237.6233 15.06390491172281","ECCENTRICITY":"0.00014330","EPOCH":"2023-03-23T12:11:02.930784","REF_FRAME":"TEME","COUNTRY_CODE":"US","MEAN_ANOMALY":"237.6233","MEAN_ELEMENT_THEORY":"SGP4","RA_OF_ASC_NODE":"184.7195","NORAD_CAT_ID":"45236","SITE":"AFETR","APOAPSIS":"548.235","FILE":"3868494","OBJECT_ID":"2020-012BL","MEAN_MOTION_DDOT":"0.0000000000000","INCLINATION":"53.0533","ELEMENT_SET_NO":"999","ARG_OF_PERICENTER":"122.4894","PERIAPSIS":"546.250","GP_ID":"228702088","LAUNCH_DATE":"2020-02-17"},{"MEAN_ELEMENT_THEORY":"SGP4","MEAN_ANOMALY":"278.5230","COUNTRY_CODE":"US","REF_FRAME":"TEME","EPOCH":"2023-03-23T14:18:26.074368","ECCENTRICITY":"0.00016550","TLE_LINE2":"2 45237  53.0558 184.3250 0001655  81.5946 278.5230 15.06373823172300","OBJECT_TYPE":"PAYLOAD","LAUNCH_DATE":"2020-02-17","GP_ID":"228703336","PERIAPSIS":"546.148","ARG_OF_PERICENTER":"81.5946","ELEMENT_SET_NO":"999","INCLINATION":"53.0558","MEAN_MOTION_DDOT":"0.0000000000000","OBJECT_ID":"2020-012BM","FILE":"3868494","APOAPSIS":"548.440","SITE":"AFETR","NORAD_CAT_ID":"45237","RA_OF_ASC_NODE":"184.3250","SEMIMAJOR_AXIS":"6925.429","TLE_LINE1":"1 45237U 20012BM  23082.59613512  .00003696  00000-0  26705-3 0  9990","REV_AT_EPOCH":"17230","CENTER_NAME":"EARTH","MEAN_MOTION_DOT":"0.00003696","EPHEMERIS_TYPE":"0","RCS_SIZE":"LARGE","TIME_SYSTEM":"UTC","PERIOD":"95.594","DECAY_DATE":null,"BSTAR":"0.00026705000000","OBJECT_NAME":"STARLINK-1270","CLASSIFICATION_TYPE":"U","MEAN_MOTION":"15.06373823"},{"REV_AT_EPOCH":"16708","SEMIMAJOR_AXIS":"6925.342","TLE_LINE1":"1 45360U 20019A   23082.88639391  .00010527  00000-0  72449-3 0  9996","EPHEMERIS_TYPE":"0","MEAN_MOTION_DOT":"0.00010527","RCS_SIZE":"LARGE","CENTER_NAME":"EARTH","OBJECT_NAME":"STARLINK-1279","BSTAR":"0.00072449000000","DECAY_DATE":null,"TIME_SYSTEM":"UTC","PERIOD":"95.592","MEAN_MOTION":"15.06402022","CLASSIFICATION_TYPE":"U","EPOCH":"2023-03-23T21:16:24.433824","REF_FRAME":"TEME","MEAN_ELEMENT_THEORY":"SGP4","MEAN_ANOMALY":"286.1570","COUNTRY_CODE":"US","OBJECT_TYPE":"PAYLOAD","TLE_LINE2":"2 45360  53.0536 313.0205 0001116  73.9542 286.1570 15.06402022167088","ECCENTRICITY":"0.00011160","PERIAPSIS":"546.434","GP_ID":"228736927","ELEMENT_SET_NO":"999","ARG_OF_PERICENTER":"73.9542","LAUNCH_DATE":"2020-03-18","RA_OF_ASC_NODE":"313.0205","NORAD_CAT_ID":"45360","MEAN_MOTION_DDOT":"0.0000000000000","INCLINATION":"53.0536","SITE":"AFETR","OBJECT_ID":"2020-019A","FILE":"3868816","APOAPSIS":"547.980"},{"CLASSIFICATION_TYPE":"U","MEAN_MOTION":"15.06395155","TIME_SYSTEM":"UTC","PERIOD":"95.592","DECAY_DATE":null,"OBJECT_NAME":"STARLINK-1301","BSTAR":"0.00215260000000","CENTER_NAME":"EARTH","EPHEMERIS_TYPE":"0","MEAN_MOTION_DOT":"0.00031923","RCS_SIZE":"LARGE","SEMIMAJOR_AXIS":"6925.363","TLE_LINE1":"1 45361U 20019B   23082.94076945  .00031923  00000-0  21526-2 0  9996","REV_AT_EPOCH":"16696","INCLINATION":"53.0532","MEAN_MOTION_DDOT":"0.0000000000000","OBJECT_ID":"2020-019B","FILE":"3868816","APOAPSIS":"548.033","SITE":"AFETR","RA_OF_ASC_NODE":"322.7782","NORAD_CAT_ID":"45361","LAUNCH_DATE":"2020-03-18","GP_ID":"228737156","PERIAPSIS":"546.424","ARG_OF_PERICENTER":"61.8095","ELEMENT_SET_NO":"999","ECCENTRICITY":"0.00011620","TLE_LINE2":"2 45361  53.0532 322.7782 0001162  61.8095 298.3011 15.06395155166961","OBJECT_TYPE":"PAYLOAD","MEAN_ELEMENT_THEORY":"SGP4","MEAN_ANOMALY":"298.3011","COUNTRY_CODE":"US","REF_FRAME":"TEME","EPOCH":"2023-03-23T22:34:42.480480"},{"REV_AT_EPOCH":"16667","TLE_LINE1":"1 45362U 20019C   23082.92049588  .00026868  00000-0  18162-2 0  9992","SEMIMAJOR_AXIS":"6925.381","RCS_SIZE":"LARGE","MEAN_MOTION_DOT":"0.00026868","EPHEMERIS_TYPE":"0","CENTER_NAME":"EARTH","OBJECT_NAME":"STARLINK-1306","BSTAR":"0.00181620000000","DECAY_DATE":null,"PERIOD":"95.593","TIME_SYSTEM":"UTC","MEAN_MOTION":"15.06389530","CLASSIFICATION_TYPE":"U","EPOCH":"2023-03-23T22:05:30.844032","REF_FRAME":"TEME","COUNTRY_CODE":"US","MEAN_ELEMENT_THEORY":"SGP4","MEAN_ANOMALY":"195.9711","OBJECT_TYPE":"PAYLOAD","TLE_LINE2":"2 45362  53.0550 342.8531 0002769 164.1365 195.9711 15.06389530166675","ECCENTRICITY":"0.00027690","ELEMENT_SET_NO":"999","ARG_OF_PERICENTER":"164.1365","PERIAPSIS":"545.328","GP_ID":"228735428","LAUNCH_DATE":"2020-03-18","NORAD_CAT_ID":"45362","RA_OF_ASC_NODE":"342.8531","SITE":"AFETR","APOAPSIS":"549.163","FILE":"3868816","OBJECT_ID":"2020-019C","MEAN_MOTION_DDOT":"0.0000000000000","INCLINATION":"53.0550"},{"TLE_LINE2":"2 45364  53.0530 310.9292 0000874 173.6629 186.4374 15.13022421167119","OBJECT_TYPE":"PAYLOAD","ECCENTRICITY":"0.00008740","REF_FRAME":"TEME","EPOCH":"2023-03-23T21:06:13.782816","MEAN_ANOMALY":"186.4374","MEAN_ELEMENT_THEORY":"SGP4","COUNTRY_CODE":"US","NORAD_CAT_ID":"45364","RA_OF_ASC_NODE":"310.9292","INCLINATION":"53.0530","MEAN_MOTION_DDOT":"0.0000000000000","FILE":"3868736","OBJECT_ID":"2020-019E","APOAPSIS":"527.594","SITE":"AFETR","GP_ID":"228715638","PERIAPSIS":"526.387","ARG_OF_PERICENTER":"173.6629","ELEMENT_SET_NO":"999","LAUNCH_DATE":"2020-03-18","EPHEMERIS_TYPE":"0","MEAN_MOTION_DOT":"0.00050197","RCS_SIZE":"LARGE","CENTER_NAME":"EARTH","REV_AT_EPOCH":"16711","SEMIMAJOR_AXIS":"6905.126","TLE_LINE1":"1 45364U 20019E   23082.87932619  .00050197  00000-0  28060-2 0  9994","MEAN_MOTION":"15.13022421","CLASSIFICATION_TYPE":"U","DECAY_DATE":null,"OBJECT_NAME":"STARLINK-1313","BSTAR":"0.00280600000000","TIME_SYSTEM":"UTC","PERIOD":"95.174"},{"MEAN_MOTION":"15.17695002","CLASSIFICATION_TYPE":"U","DECAY_DATE":null,"BSTAR":"0.00240680000000","OBJECT_NAME":"STARLINK-1317","PERIOD":"94.881","TIME_SYSTEM":"UTC","RCS_SIZE":"LARGE","EPHEMERIS_TYPE":"0","MEAN_MOTION_DOT":"0.00049137","CENTER_NAME":"EARTH","REV_AT_EPOCH":"16696","TLE_LINE1":"1 45365U 20019F   23082.90031053  .00049137  00000-0  24068-2 0  9997","SEMIMAJOR_AXIS":"6890.946","NORAD_CAT_ID":"45365","RA_OF_ASC_NODE":"317.2977","APOAPSIS":"516.116","FILE":"3868816","OBJECT_ID":"2020-019F","SITE":"AFETR","INCLINATION":"52.9942","MEAN_MOTION_DDOT":"0.0000000000000","ARG_OF_PERICENTER":"171.2277","ELEMENT_SET_NO":"999","GP_ID":"228736428","PERIAPSIS":"509.506","LAUNCH_DATE":"2020-03-18","TLE_LINE2":"2 45365  52.9942 317.2977 0004796 171.2277 188.8801 15.17695002166963","OBJECT_TYPE":"PAYLOAD","ECCENTRICITY":"0.00047960","REF_FRAME":"TEME","EPOCH":"2023-03-23T21:36:26.829792","COUNTRY_CODE":"US","MEAN_ANOMALY":"188.8801","MEAN_ELEMENT_THEORY":"SGP4"},{"MEAN_MOTION_DDOT":"0.0000000000000","INCLINATION":"53.0540","SITE":"AFETR","OBJECT_ID":"2020-019G","FILE":"3868816","APOAPSIS":"547.782","RA_OF_ASC_NODE":"342.9403","NORAD_CAT_ID":"45366","LAUNCH_DATE":"2020-03-18","PERIAPSIS":"546.583","GP_ID":"228736657","ELEMENT_SET_NO":"999","ARG_OF_PERICENTER":"89.4072","ECCENTRICITY":"0.00008660","OBJECT_TYPE":"PAYLOAD","TLE_LINE2":"2 45366  53.0540 342.9403 0000866  89.4072 270.7016 15.06410077166689","MEAN_ELEMENT_THEORY":"SGP4","MEAN_ANOMALY":"270.7016","COUNTRY_CODE":"US","EPOCH":"2023-03-23T21:44:16.736064","REF_FRAME":"TEME","CLASSIFICATION_TYPE":"U","MEAN_MOTION":"15.06410077","TIME_SYSTEM":"UTC","PERIOD":"95.592","BSTAR":"0.00260440000000","OBJECT_NAME":"STARLINK-1262","DECAY_DATE":null,"CENTER_NAME":"EARTH","MEAN_MOTION_DOT":"0.00038735","EPHEMERIS_TYPE":"0","RCS_SIZE":"LARGE","SEMIMAJOR_AXIS":"6925.318","TLE_LINE1":"1 45366U 20019G   23082.90574926  .00038735  00000-0  26044-2 0  9997","REV_AT_EPOCH":"16668"}];
